NORAD_CAT_ID,OBJECT_NAME,OBJECT_TYPE,EPOCH,MEAN_MOTION,ECCENTRICITY,INCLINATION,RA_OF_ASC_NODE,ARG_OF_PERICENTER,MEAN_ANOMALY,BSTAR,MEAN_MOTION_DOT,MEAN_MOTION_DDOT,TLE_LINE0,TLE_LINE1,TLE_LINE2,SEMIMAJOR_AXIS,PERIOD,APOGEE,PERIGEE,DECAYED
53003.0,STARLINK-4255,PAYLOAD,2022-07-31 22:00:00,15.73251113,0.0002536,53.2179,258.9798,16.4201,30.4708,-8.009e-05,-0.00011873,0.0,0 STARLINK-4255,1 53003U 22076T   22212.91667824 -.00011873  00000-0 -80090-4 0  9993,2 53003  53.2179 258.9798 0002536  16.4201  30.4708 15.73251113  1303,6727.749,91.53,351.321,347.908,0.0
53003.0,STARLINK-4255,PAYLOAD,2022-08-01 14:00:01,15.73201149,0.0002847,53.2179,255.6828,19.0912,205.7493,0.00049799,0.00069865,0.0,0 STARLINK-4255,1 53003U 22076T   22213.58334491  .00069865  00000-0  49799-3 0  9990,2 53003  53.2179 255.6828 0002847  19.0912 205.7493 15.73201149  1306,6727.892,91.533,351.672,347.841,0.0
53003.0,STARLINK-4255,PAYLOAD,2022-08-01 22:00:00,15.73223448,0.0002616,53.2183,254.0311,19.5456,294.2566,-0.0003086999999999,-0.00043772,0.0,0 STARLINK-4255,1 53003U 22076T   22213.91667824 -.00043772  00000-0 -30870-3 0  9997,2 53003  53.2183 254.0311 0002616  19.5456 294.2566 15.73223448  1303,6727.828,91.532,351.45300000000015,347.93300000000005,0.0
53003.0,STARLINK-4255,PAYLOAD,2022-08-02 06:00:02,15.73213442,0.0002703999999999,53.2185,252.3821,18.7907,24.0087,-0.00011586,-0.00016862,0.0,0 STARLINK-4255,1 53003U 22076T   22214.25002315 -.00016862  00000-0 -11586-3 0  9996,2 53003  53.2185 252.3821 0002704  18.7907  24.0087 15.73213442  4541,6727.857,91.532,351.541,347.903,0.0
53003.0,STARLINK-4255,PAYLOAD,2022-08-02 14:00:01,15.7320182,0.0002898,53.2182,250.734,15.4887,116.1886,-0.00025341,-0.00036046,0.0,0 STARLINK-4255,1 53003U 22076T   22214.58334491 -.00036046  00000-0 -25341-3 0  9995,2 53003  53.2182 250.7340 0002898  15.4887 116.1886 15.73201820  1309,6727.89,91.533,351.705,347.805,0.0
53003.0,STARLINK-4255,PAYLOAD,2022-08-03 12:00:00,15.73179798,0.0002918,53.2184,246.1983,16.2386,269.9572,0.00046358,0.00064897,0.0,0 STARLINK-4255,1 53003U 22076T   22215.50001157  .00064897  00000-0  46358-3 0  9992,2 53003  53.2184 246.1983 0002918  16.2386 269.9572 15.73179798  4747,6727.953,91.534,351.781,347.855,0.0
53003.0,STARLINK-4255,PAYLOAD,2022-08-03 14:00:01,15.73191758,0.0002935,53.2181,245.7857,15.3805,23.0438,0.00040879,0.00057129,0.0,0 STARLINK-4255,1 53003U 22076T   22215.58334491  .00057129  00000-0  40879-3 0  9992,2 53003  53.2181 245.7857 0002935  15.3805  23.0438 15.73191758  1303,6727.919,91.534,351.7580000000001,347.809,0.0
53003.0,STARLINK-4255,PAYLOAD,2022-08-03 22:00:01,15.73215805,0.0002716,53.2186,244.1341,18.5805,108.8616,0.0002638999999999,0.00036606,0.0,0 STARLINK-4255,1 53003U 22076T   22215.91668981  .00036606  00000-0  26390-3 0  9992,2 53003  53.2186 244.1341 0002716  18.5805 108.8616 15.73215805  1301,6727.85,91.532,351.542,347.88800000000015,0.0
53003.0,STARLINK-4255,PAYLOAD,2022-08-04 04:00:00,15.73264062,0.0002839,53.219,242.8974,22.5059,81.585,-0.00060259,-0.00084598,0.0,0 STARLINK-4255,1 53003U 22076T   22216.16667824 -.00084598  00000-0 -60259-3 0  9992,2 53003  53.2190 242.8974 0002839  22.5059  81.5850 15.73264062  4843,6727.7130000000025,91.529,351.48800000000006,347.668,0.0
53003.0,STARLINK-4255,PAYLOAD,2022-08-04 12:00:00,15.73175146,0.0003131,53.219,241.2497,22.4642,170.5962,0.00053353,0.00074859,0.0,0 STARLINK-4255,1 53003U 22076T   22216.50001157  .00074859  00000-0  53353-3 0  9995,2 53003  53.2190 241.2497 0003131  22.4642 170.5962 15.73175146  4891,6727.965999999999,91.535,351.93800000000016,347.725,0.0
53003.0,STARLINK-4255,PAYLOAD,2022-08-04 14:00:01,15.73200666,0.0003118,53.2187,240.8372,21.4237,283.8609,0.00027191,0.00037719,0.0,0 STARLINK-4255,1 53003U 22076T   22216.58334491  .00037719  00000-0  27191-3 0  9998,2 53003  53.2187 240.8372 0003118  21.4237 283.8609 15.73200666  1303,6727.893,91.533,351.856,347.661,0.0
53003.0,STARLINK-4255,PAYLOAD,2022-08-04 20:00:01,15.73235962,0.0002865,53.2189,239.5985,22.6929,259.2971,-0.00057646,-0.00080895,0.0,0 STARLINK-4255,1 53003U 22076T   22216.83334491 -.00080895  00000-0 -57646-3 0  9999,2 53003  53.2189 239.5985 0002865  22.6929 259.2971 15.73235962  4959,6727.793000000002,91.531,351.585,347.73,0.0
53003.0,STARLINK-4255,PAYLOAD,2022-08-04 22:00:00,15.73195612,0.0002791,53.2187,239.1857,22.4032,11.836,-0.00013009,-0.00018839,0.0,0 STARLINK-4255,1 53003U 22076T   22216.91667824 -.00018839  00000-0 -13009-3 0  9991,2 53003  53.2187 239.1857 0002791  22.4032  11.8360 15.73195612  1309,6727.908,91.533,351.65,347.895,0.0
53003.0,STARLINK-4255,PAYLOAD,2022-08-05 04:00:00,15.73192876,0.0002833,53.2189,237.9494,21.8126,349.11,-3.6381e-05,-5.724e-05,0.0,0 STARLINK-4255,1 53003U 22076T   22217.16667824 -.00005724  00000-0 -36381-4 0  9997,2 53003  53.2189 237.9494 0002833  21.8126 349.1100 15.73192876  5007,6727.915,91.534,351.68699999999984,347.874,0.0
53003.0,STARLINK-4255,PAYLOAD,2022-08-05 12:00:00,15.73172109,0.0003045,53.2187,236.3018,20.6319,79.2225,0.00058707,0.00082497,0.0,0 STARLINK-4255,1 53003U 22076T   22217.50001157  .00082497  00000-0  58707-3 0  9991,2 53003  53.2187 236.3018 0003045  20.6319  79.2225 15.73172109  5058,6727.975,91.535,351.88800000000015,347.791,0.0
53003.0,STARLINK-4255,PAYLOAD,2022-08-05 14:00:01,15.73200992,0.0003033,53.2184,235.889,20.0713,192.0716,0.00029042,0.00040341,0.0,0 STARLINK-4255,1 53003U 22076T   22217.58335648  .00040341  00000-0  29042-3 0  9996,2 53003  53.2184 235.8890 0003033  20.0713 192.0716 15.73200992  1301,6727.892,91.533,351.798,347.717,0.0
53003.0,STARLINK-4255,PAYLOAD,2022-08-05 20:00:01,15.73227191,0.0002828,53.219,234.6502,20.9556,167.8964,-3.8919e-05,-6.088e-05,0.0,0 STARLINK-4255,1 53003U 22076T   22217.83335648 -.00006088  00000-0 -38919-4 0  9990,2 53003  53.2190 234.6502 0002828  20.9556 167.8964 15.73227191  5107,6727.818,91.532,351.585,347.78,0.0
53003.0,STARLINK-4255,PAYLOAD,2022-08-05 22:00:00,15.73226216,0.0002782,53.2188,234.2376,20.9083,280.1199,-8.7451e-05,-0.00012893,0.0,0 STARLINK-4255,1 53003U 22076T   22217.91667824 -.00012893  00000-0 -87451-4 0  9999,2 53003  53.2188 234.2376 0002782  20.9083 280.1199 15.73226216  1307,6727.82,91.532,351.557,347.814,0.0
53003.0,STARLINK-4255,PAYLOAD,2022-08-06 11:58:20,15.73224389,0.0003351,53.2188,231.3584,40.6055,319.5215,0.00017042,0.00023392,0.0,0 STARLINK-4255,1 53003U 22076T   22218.49885358  .00023392  00000-0  17042-3 0  9999,2 53003  53.2188 231.3584 0003351  40.6055 319.5215 15.73224389  4743,6727.826,91.532,351.945,347.436,0.0
53003.0,STARLINK-4255,PAYLOAD,2022-08-06 12:00:00,15.73206481,0.000307,53.2189,231.3535,16.8431,349.8387,-0.00015625,-0.00022505,0.0,0 STARLINK-4255,1 53003U 22076T   22218.50001157 -.00022505  00000-0 -15625-3 0  9990,2 53003  53.2189 231.3535 0003070  16.8431 349.8387 15.73206481  5213,6727.877,91.533,351.807,347.676,0.0
53003.0,STARLINK-4255,PAYLOAD,2022-08-06 22:00:00,15.73147278,0.0002748,53.2185,229.2895,16.7356,191.1097,0.00054103,0.00075834,0.0,0 STARLINK-4255,1 53003U 22076T   22218.91667824  .00075834  00000-0  54103-3 0  9999,2 53003  53.2185 229.2895 0002748  16.7356 191.1097 15.73147278  1300,6728.045,91.536,351.759,348.06199999999984,0.0
53003.0,STARLINK-4255,PAYLOAD,2022-08-07 04:00:00,15.73203903,0.0002838,53.2187,228.0537,17.9253,166.5833,2.1573e-05,2.407e-05,0.0,0 STARLINK-4255,1 53003U 22076T   22219.16667824  .00002407  00000-0  21573-4 0  9999,2 53003  53.2187 228.0537 0002838  17.9253 166.5833 15.73203903  5318,6727.884,91.533,351.658,347.84,0.0
53003.0,STARLINK-4255,PAYLOAD,2022-08-07 14:00:01,15.7323041,0.0003026,53.2181,225.9929,15.4704,10.1905,-0.00011454,-0.00016691,0.0,0 STARLINK-4255,1 53003U 22076T   22219.58334491 -.00016691  00000-0 -11454-3 0  9994,2 53003  53.2181 225.9929 0003026  15.4704  10.1905 15.73230410  1309,6727.808000000001,91.531,351.709,347.63800000000015,0.0
53003.0,STARLINK-4255,PAYLOAD,2022-08-07 22:00:00,15.73188884,0.0002708,53.2183,224.3414,15.8421,98.8033,0.00026105,0.0003616,0.0,0 STARLINK-4255,1 53003U 22076T   22219.91667824  .00036160  00000-0  26105-3 0  9990,2 53003  53.2183 224.3414 0002708  15.8421  98.8033 15.73188884  1301,6727.927,91.534,351.61400000000015,347.97,0.0
53003.0,STARLINK-4255,PAYLOAD,2022-08-08 04:00:00,15.73235049,0.0002824,53.2186,223.1055,15.8892,75.4608,0.00010585,0.00014283,0.0,0 STARLINK-4255,1 53003U 22076T   22220.16667824  .00014283  00000-0  10585-3 0  9996,2 53003  53.2186 223.1055 0002824  15.8892  75.4608 15.73235049  5470,6727.795,91.531,351.56,347.76,0.0
53003.0,STARLINK-4255,PAYLOAD,2022-08-08 12:00:00,15.73274257,0.0002962,53.2181,221.4572,13.1967,167.1343,-5.9499e-08,-6.32e-06,0.0,0 STARLINK-4255,1 53003U 22076T   22220.50001157 -.00000632  00000-0 -59499-7 0  9991,2 53003  53.2181 221.4572 0002962  13.1967 167.1343 15.73274257  5522,6727.683000000001,91.529,351.541,347.556,0.0
53003.0,STARLINK-4255,PAYLOAD,2022-08-08 14:00:01,15.73318936,0.0002906,53.218,221.0442,11.5422,281.0966,-0.00074986,-0.00105116,0.0,0 STARLINK-4255,1 53003U 22076T   22220.58335648 -.00105116  00000-0 -74986-3 0  9991,2 53003  53.2180 221.0442 0002906  11.5422 281.0966 15.73318936  1301,6727.556,91.526,351.376,347.466,0.0
53003.0,STARLINK-4255,PAYLOAD,2022-08-08 22:00:00,15.73220667,0.0002648999999999,53.218,219.393,10.2835,11.328,2.8084e-05,3.325e-05,0.0,0 STARLINK-4255,1 53003U 22076T   22220.91667824  .00003325  00000-0  28084-4 0  9998,2 53003  53.2180 219.3930 0002649  10.2835  11.3280 15.73220667  1307,6727.8359999999975,91.532,351.483,347.9190000000001,0.0
53003.0,STARLINK-4255,PAYLOAD,2022-08-09 04:00:00,15.73244324,0.000277,53.2179,218.1573,9.8081,348.5005,-0.00091466,-0.00127337,0.0,0 STARLINK-4255,1 53003U 22076T   22221.16667824 -.00127337  00000-0 -91466-3 0  9991,2 53003  53.2179 218.1573 0002770   9.8081 348.5005 15.73244324  5633,6727.769,91.531,351.497,347.77,0.0
